ANGOSAT 2               
1 54033U 22131A   26202.26445398  .00000136  00000+0  00000+0 0  9995
2 54033   0.0178 138.9852 0000178 325.8064 312.4348  1.00272981 13811
EUTELSAT HOTBIRD 13F    
1 54048U 22134A   26202.26246064  .00000088  00000+0  00000+0 0  9999
2 54048   0.0538 282.4690 0001954  81.7707  42.2788  1.00272127 13714
LDPE-2                  
1 54219U 22144A   26202.25600182 -.00000011  00000+0  00000+0 0  9991
2 54219   5.6787  63.2585 0002542 106.3391  96.9902  1.00546162 12183
EUTELSAT HOTBIRD 13G    
1 54225U 22146A   26202.26246064  .00000088  00000+0  00000+0 0  9999
2 54225   0.0500 229.3110 0002018 305.1478 232.0597  1.00272051  7803
ZHONGXING-19            
1 54230U 22148A   26202.22089660 -.00000081  00000+0  00000+0 0  9994
2 54230   0.0162  73.6951 0003302  63.9485  44.0429  1.00272252 13726
GALAXY 31 (G-31)        
1 54243U 22153A   26202.25600182  .00000014  00000+0  00000+0 0  9990
2 54243   0.0073 228.5504 0001311 252.8478 148.7703  1.00273147  7471
GALAXY 32 (G-32)        
1 54244U 22153B   26202.23933683 -.00000173  00000+0  00000+0 0  9991
2 54244   0.0052  14.9690 0001449  38.9543 240.2404  1.00271780 13485
EUTELSAT 10B            
1 54259U 22157A   26202.26185397  .00000069  00000+0  00000+0 0  9998
2 54259   0.0596  96.4259 0001809   1.9817 304.8263  1.00270421 13362
GALAXY 35 (G-35)        
1 54741U 22170A   26202.24148720 -.00000161  00000+0  00000+0 0  9990
2 54741   0.0220  95.2867 0002024  22.2026 175.3415  1.00272185 13237
GALAXY 36 (G-36)        
1 54742U 22170B   26202.24226721 -.00000184  00000+0  00000+0 0  9994
2 54742   0.0206 132.9693 0002743 327.9110 196.3377  1.00271647 13114
METEOSAT-12 (MTG-I1)    
1 54743U 22170C   26202.25977396 -.00000008  00000+0  00000+0 0  9992
2 54743   0.7314  20.7503 0004089  81.0388 290.3631  1.00269578 13327
SHIJIAN-23 (SJ-23)      
1 55131U 23002A   26201.67844434 -.00000361  00000+0  00000+0 0  9992
2 55131   3.8014  77.8918 0003397 275.6449 314.3945  1.00074682 12844
APSTAR-6E               
1 55239U 23005A   26201.21715984 -.00000320  00000+0  00000+0 0  9996
2 55239   0.0462 230.1058 0002654 322.6565 317.3948  1.00273697 19025
USA 342                 
1 55263U 23008A   26200.33994240  .00000000  00000+0  00000+0 0  9996
2 55263   0.0047  62.4879 0000215 103.9152 276.9334  1.00270942 12832
ELEKTRO-L 4             
1 55506U 23016A   26201.71037091 -.00000059  00000+0  00000+0 0  9995
2 55506   0.1071 279.1217 0001601 258.4837 182.3803  1.00270878 12670
AMAZONAS NEXUS          
1 55508U 23017A   26202.24781390 -.00000282  00000+0  00000+0 0  9993
2 55508   0.0347  45.1787 0004504  44.6598 237.3793  1.00270403  7389
ZHONGXING-26            
1 55686U 23023A   26201.99950126 -.00000354  00000+0  00000+0 0  9993
2 55686   0.0595  71.7320 0003428  32.1565 319.7928  1.00269388 12560
LUCH-5X (OLYMP-K 2)     
1 55841U 23031A   26201.71919881  .00000032  00000+0  00000+0 0  9990
2 55841   0.0259  94.0314 0001349 188.5494 336.8068  1.00271929 12275
GAOFEN-13 02            
1 55912U 23036A   26202.17614492 -.00000217  00000+0  00000+0 0  9991
2 55912   1.0298   5.3319 0003537 339.3132 165.9880  1.00273655 12433
SES-18                  
1 55970U 23038A   26202.26086351 -.00000100  00000+0  00000+0 0  9995
2 55970   0.0628 261.8634 0000990 288.9927  98.9710  1.00272181 12444
SES-19                  
1 55971U 23038B   26202.23317441  .00000088  00000+0  00000+0 0  9994
2 55971   0.0433 269.9424 0001831 211.4372 126.6478  1.00273374 12439
INTELSAT 40E (IS-40E)   
1 56174U 23052A   26202.24192053  .00000000  00000+0  00000+0 0  9991
2 56174   0.0212  74.3885 0002583  67.5549 153.1613  1.00269503 12165
VIASAT-3 F1             
1 56370U 23060A   26201.81459427  .00000000  00000+0  00000+0 0  9991
2 56370   0.0125  41.4415 0000592  49.9672  51.4846  1.00269886 11777
ARCTURUS                
1 56371U 23060B   26202.09489227 -.00000357  00000+0  00000+0 0  9990
2 56371   2.8585  79.5158 0001349 133.6564 225.7040  1.00591915 11791
GS-1                    
1 56372U 23060C   26200.63801079 -.00000226  00000+0  00000+0 0  9997
2 56372   2.8060  79.4439 0003310 279.2599 257.6192  1.00265513  7863
BEIDOU-3 G4             
1 56564U 23066A   26202.28759409 -.00000280  00000+0  00000+0 0  9998
2 56564   0.4557 340.6994 0005088 183.1826  18.7652  1.00271012 11739
ARABSAT-7B (BADR-8)     
1 56757U 23075A   26202.26506065  .00000145  00000+0  00000+0 0  9997
2 56757   0.0741  31.5330 0003457   1.2746  27.6312  1.00271628 11457
NVS-01 (IRNSS-1J)       
1 56759U 23076A   26202.28551407 -.00000333  00000+0  00000+0 0  9992
2 56759   2.0876 242.7875 0002952  18.4158 270.1155  1.00276126 11454
NUSANTARA TIGA (SATRIA) 
1 57045U 23086A   26202.17614492 -.00000234  00000+0  00000+0 0  9994
2 57045   0.0362  14.3144 0002123 315.9058 178.1269  1.00268848 10103
H2SAT (HEINRICH HERTZ)  
1 57213U 23093A   26202.26003396  .00000003  00000+0  00000+0 0  9997
2 57213   0.0227 109.5354 0000884 224.8025  59.0014  1.00270783 11257
SYRACUSE 4B             
1 57214U 23093B   26202.25864729  .00000000  00000+0  00000+0 0  9999
2 57214   0.0226  59.3688 0000172 100.9039 225.4083  1.00273020  7301
