OBJECT_NAME,OBJECT_ID,EPOCH,MEAN_MOTION,ECCENTRICITY,INCLINATION,RA_OF_ASC_NODE,ARG_OF_PERICENTER,MEAN_ANOMALY,EPHEMERIS_TYPE,CLASSIFICATION_TYPE,NORAD_CAT_ID,ELEMENT_SET_NO,REV_AT_EPOCH,BSTAR,MEAN_MOTION_DOT,MEAN_MOTION_DDOT
ANGOSAT 2,2022-131A,2026-07-21T06:20:48.823872,1.00272981,.00001789,0.0178,138.9852,325.8064,312.4348,0,U,54033,999,1381,0,.136E-5,0
EUTELSAT HOTBIRD 13F,2022-134A,2026-07-21T06:17:56.599296,1.00272127,.0001954,0.0538,282.4690,81.7707,42.2788,0,U,54048,999,1371,0,.88E-6,0
LDPE-2,2022-144A,2026-07-21T06:08:38.557248,1.00546162,.00025423,5.6787,63.2585,106.3391,96.9902,0,U,54219,999,1218,0,-.11E-6,0
EUTELSAT HOTBIRD 13G,2022-146A,2026-07-21T06:17:56.599296,1.00272051,.00020188,0.0500,229.3110,305.1478,232.0597,0,U,54225,999,780,0,.88E-6,0
ZHONGXING-19,2022-148A,2026-07-21T05:18:05.466240,1.00272252,.00033027,0.0162,73.6951,63.9485,44.0429,0,U,54230,999,1372,0,-.81E-6,0
GALAXY 31 (G-31),2022-153A,2026-07-21T06:08:38.557248,1.00273147,.00013119,0.0073,228.5504,252.8478,148.7703,0,U,54243,999,747,0,.14E-6,0
GALAXY 32 (G-32),2022-153B,2026-07-21T05:44:38.702112,1.00271780,.0001449,0.0052,14.9690,38.9543,240.2404,0,U,54244,999,1348,0,-.173E-5,0
EUTELSAT 10B,2022-157A,2026-07-21T06:17:04.183008,1.00270421,.00018098,0.0596,96.4259,1.9817,304.8263,0,U,54259,999,1336,0,.69E-6,0
GALAXY 35 (G-35),2022-170A,2026-07-21T05:47:44.494080,1.00272185,.00020246,0.0220,95.2867,22.2026,175.3415,0,U,54741,999,1323,0,-.161E-5,0
GALAXY 36 (G-36),2022-170B,2026-07-21T05:48:51.886944,1.00271647,.0002743,0.0206,132.9693,327.9110,196.3377,0,U,54742,999,1311,0,-.184E-5,0
METEOSAT-12 (MTG-I1),2022-170C,2026-07-21T06:14:04.470144,1.00269578,.00040895,0.7314,20.7503,81.0388,290.3631,0,U,54743,999,1332,0,-.8E-7,0
SHIJIAN-23 (SJ-23),2023-002A,2026-07-20T16:16:57.590976,1.00074682,.0003397,3.8014,77.8918,275.6449,314.3945,0,U,55131,999,1284,0,-.361E-5,0
APSTAR-6E,2023-005A,2026-07-20T05:12:42.610176,1.00273697,.00026547,0.0462,230.1058,322.6565,317.3948,0,U,55239,999,1902,0,-.32E-5,0
USA 342,2023-008A,2026-07-19T08:09:31.023360,1.00270942,.0000215,0.0047,62.4879,103.9152,276.9334,0,U,55263,999,1283,0,0,0
ELEKTRO-L 4,2023-016A,2026-07-20T17:02:56.046624,1.00270878,.00016018,0.1071,279.1217,258.4837,182.3803,0,U,55506,999,1267,0,-.59E-6,0
AMAZONAS NEXUS,2023-017A,2026-07-21T05:56:51.120960,1.00270403,.00045043,0.0347,45.1787,44.6598,237.3793,0,U,55508,999,738,0,-.282E-5,0
ZHONGXING-26,2023-023A,2026-07-20T23:59:16.908864,1.00269388,.00034286,0.0595,71.7320,32.1565,319.7928,0,U,55686,999,1256,0,-.354E-5,0
LUCH-5X (OLYMP-K 2),2023-031A,2026-07-20T17:15:38.777184,1.00271929,.0001349,0.0259,94.0314,188.5494,336.8068,0,U,55841,999,1227,0,.32E-6,0
GAOFEN-13 02,2023-036A,2026-07-21T04:13:38.921088,1.00273655,.00035372,1.0298,5.3319,339.3132,165.9880,0,U,55912,999,1243,0,-.217E-5,0
SES-18,2023-038A,2026-07-21T06:15:38.607264,1.00272181,.00009908,0.0628,261.8634,288.9927,98.9710,0,U,55970,999,1244,0,-.1E-5,0
SES-19,2023-038B,2026-07-21T05:35:46.269024,1.00273374,.00018319,0.0433,269.9424,211.4372,126.6478,0,U,55971,999,1243,0,.88E-6,0
INTELSAT 40E (IS-40E),2023-052A,2026-07-21T05:48:21.933792,1.00269503,.00025833,0.0212,74.3885,67.5549,153.1613,0,U,56174,999,1216,0,0,0
VIASAT-3 F1,2023-060A,2026-07-20T19:33:00.944928,1.00269886,.00005927,0.0125,41.4415,49.9672,51.4846,0,U,56370,999,1177,0,0,0
ARCTURUS,2023-060B,2026-07-21T02:16:38.692128,1.00591915,.00013495,2.8585,79.5158,133.6564,225.7040,0,U,56371,999,1179,0,-.357E-5,0
GS-1,2023-060C,2026-07-19T15:18:44.132256,1.00265513,.00033104,2.8060,79.4439,279.2599,257.6192,0,U,56372,999,786,0,-.226E-5,0
BEIDOU-3 G4,2023-066A,2026-07-21T06:54:08.129376,1.00271012,.00050881,0.4557,340.6994,183.1826,18.7652,0,U,56564,999,1173,0,-.28E-5,0
ARABSAT-7B (BADR-8),2023-075A,2026-07-21T06:21:41.240160,1.00271628,.00034574,0.0741,31.5330,1.2746,27.6312,0,U,56757,999,1145,0,.145E-5,0
NVS-01 (IRNSS-1J),2023-076A,2026-07-21T06:51:08.415648,1.00276126,.00029527,2.0876,242.7875,18.4158,270.1155,0,U,56759,999,1145,0,-.333E-5,0
NUSANTARA TIGA (SATRIA),2023-086A,2026-07-21T04:13:38.921088,1.00268848,.00021231,0.0362,14.3144,315.9058,178.1269,0,U,57045,999,1010,0,-.234E-5,0
H2SAT (HEINRICH HERTZ),2023-093A,2026-07-21T06:14:26.934144,1.00270783,.00008841,0.0227,109.5354,224.8025,59.0014,0,U,57213,999,1125,0,.3E-7,0
SYRACUSE 4B,2023-093B,2026-07-21T06:12:27.125856,1.00273020,.00001721,0.0226,59.3688,100.9039,225.4083,0,U,57214,999,730,0,0,0
